[{"OBJECT_NAME":"KINEIS-5B","OBJECT_ID":"2024-219E","EPOCH":"2026-03-09T22:46:51.481344","MEAN_MOTION":14.78074364,"ECCENTRICITY":0.00015209,"INCLINATION":97.9946,"RA_OF_ASC_NODE":233.4308,"ARG_OF_PERICENTER":190.4987,"MEAN_ANOMALY":169.6192,"EPHEMERIS_TYPE":0,"CLASSIFICATION_TYPE":"U","NORAD_CAT_ID":62085,"ELEMENT_SET_NO":999,"REV_AT_EPOCH":6934,"BSTAR":0.00031384185,"MEAN_MOTION_DOT":2.217e-5,"MEAN_MOTION_DDOT":0},{"OBJECT_NAME":"COSMOS 2251 DEB","OBJECT_ID":"1993-036KL","EPOCH":"2026-03-09T16:03:41.264640","MEAN_MOTION":14.81149967,"ECCENTRICITY":0.003246,"INCLINATION":74.0053,"RA_OF_ASC_NODE":70.3186,"ARG_OF_PERICENTER":235.3211,"MEAN_ANOMALY":124.4906,"EPHEMERIS_TYPE":0,"CLASSIFICATION_TYPE":"U","NORAD_CAT_ID":34115,"ELEMENT_SET_NO":999,"REV_AT_EPOCH":90698,"BSTAR":0.0011309643,"MEAN_MOTION_DOT":8.85e-5,"MEAN_MOTION_DDOT":0}]
